LEMUR-1                 
1 40044U 14033AL  26187.35920270  .00002160  00000+0  25243-3 0  9992
2 40044  97.7901 336.7410 0048518  16.9645 343.3179 14.85319108648310
LEMUR-2-GREENBERG       
1 42837U 17042N   26187.75207538  .00013796  00000+0  44885-3 0  9996
2 42837  97.3832   8.2953 0007188 295.9330  64.1170 15.31966739491384
LEMUR-2-ANDIS           
1 42838U 17042P   26187.73544481  .00017878  00000+0  51664-3 0  9994
2 42838  97.3685   8.5318 0007107 293.7973  66.2525 15.35678970491455
LEMUR-2-MONSON          
1 42839U 17042Q   26187.73806894  .00011607  00000+0  41953-3 0  9998
2 42839  97.4095   8.2234 0005141 284.6835  75.3834 15.28600277491156
LEMUR-2-FURIAUS         
1 42840U 17042R   26187.43255173  .00018651  00000+0  62538-3 0  9993
2 42840  97.3781   5.8885 0006724   4.0809 356.0486 15.30929761491154
LEMUR-2-PETERG          
1 42841U 17042S   26187.47065099  .00024549  00000+0  72866-3 0  9992
2 42841  97.4000  12.5429 0002864 263.6027  96.4890 15.34790924491396
LEMUR-2-DEMBITZ         
1 42842U 17042T   26187.45219817  .00017223  00000+0  57818-3 0  9991
2 42842  97.3834   8.9463 0005291 313.9812  46.0993 15.30918269491290
LEMUR-2-ZACHARY         
1 42845U 17042W   26187.47928301  .00051075  00000+0  84327-3 0  9999
2 42845  97.3592  19.5481 0002339 292.4564  67.6440 15.52103423492195
LEMUR-2-AMANDA-SVANTE   
1 48269U 21034B   26187.19863294  .00035315  00000+0  10207-2 0  9993
2 48269  97.5745 266.0000 0004036 164.2126 195.9244 15.35552160283973
LEMUR-2-SPECIAL-K       
1 48273U 21034F   26187.23722578  .00241712  00000+0  18453-2 0  9993
2 48273  97.5636 275.5626 0005773 220.9079 139.1750 15.71456484284674
LEMUR-2-EMBRIONOVIS     
1 56970U 23084AQ  26187.33247503  .00014178  00000+0  38021-3 0  9992
2 56970  97.6316 332.2754 0007701 241.1280 118.9192 15.38065403170622
LEMUR-2-DEVERILL-M-T    
1 57391U 23100F   26187.65941184  .00021851  00000+0  53549-3 0  9998
2 57391  99.4457 232.0549 0004853 334.3234  25.7764 15.40781966164247
LEMUR-2-BASS            
1 58259U 23174D   26187.79000969  .00015539  00000+0  34469-3 0  9991
2 58259  97.3840 272.7845 0007987 102.9943 257.2197 15.43791093148385
LEMUR-2-JK0903EM1407    
1 58336U 23174CJ  26187.74205231  .00023414  00000+0  37988-3 0  9991
2 58336  97.3916 278.7771 0004313  60.8659 299.3025 15.52744169148766
LEMUR-2-MJR092620       
1 58340U 23174CN  26187.71556336  .00015007  00000+0  31298-3 0  9995
2 58340  97.3969 278.1135 0006071  58.6351 301.5491 15.45636987148666
LEMUR-2-NIMBUS2000      
1 58899U 24022A   26187.82691969  .00016714  00000+0  40833-3 0  9992
2 58899  97.4092  38.0827 0009558  55.6742 304.5408 15.40859302135297
